{
  "norad_id": 26857,
  "name": "OMNI-M1",
  "history": [
    {
      "epoch": "2026-03-26T16:10:41.972160Z",
      "apogee_km": 10630.084971931308,
      "perigee_km": 10571.826309262888,
      "latitude_deg": -2.472369515636835e-05,
      "longitude_deg": -162.52140554935127,
      "height_km": 10577.356533901318,
      "semi_major_axis_km": 16979.092640597097,
      "eccentricity": 0.0017156,
      "inclination_deg": 44.8666,
      "raan_deg": 264.2755,
      "arg_perigee_deg": 35.9466,
      "mean_anomaly_deg": 324.1845,
      "mean_motion_rev_day": 3.92401849
    }
  ]
}